ORBCOMM FM35            
1 25985U 99065F   26087.70445896  .00001005  00000+0  37647-3 0  9999
2 25985  45.0388 189.0020 0002098   0.5616 359.5235 14.37919473375720
ORBCOMM FM34            
1 25986U 99065G   26087.53752344  .00000806  00000+0  31169-3 0  9991
2 25986  45.0384 190.3162 0003659 302.6582  57.3913 14.37822625375819
ORBCOMM FM38            
1 33060U 08031A   26087.86283928  .00002233  00000+0  29955-3 0  9995
2 33060  48.4404  37.0766 0004513 195.2586 164.8195 14.82814871956970
ORBCOMM FM41            
1 33061U 08031B   26087.64537672  .00002078  00000+0  28374-3 0  9991
2 33061  48.4435  46.9270 0003592 178.4922 351.4918 14.82342952956419
ORBCOMM FM29            
1 33062U 08031C   26087.67099538  .00002184  00000+0  29557-3 0  9991
2 33062  48.4384  54.1956 0005166 176.2002 354.1708 14.82519424956337
ORBCOMM FM39            
1 33063U 08031D   26087.69460189  .00001611  00000+0  23367-3 0  9995
2 33063  48.4402  81.6598 0005830 142.5536 217.5786 14.80888980955940
ORBCOMM FM37            
1 33064U 08031E   26087.38483603  .00001705  00000+0  24461-3 0  9998
2 33064  48.4396  71.2180 0004592 164.1310 349.2516 14.81078142956159
ORBCOMM FM40            
1 33065U 08031F   26087.63989568  .00002544  00000+0  33022-3 0  9993
2 33065  48.4412  48.8762 0005709 182.0611 348.0322 14.83747178956379
VESSELSAT 1             
1 37840U 11058C   26087.59337252  .00000356  00000+0  49559-4 0  9995
2 37840  19.9607 172.8455 0013783  75.1902 285.0028 14.11424444746533
ORBCOMM FM109           
1 40086U 14040A   26087.41750461  .00000497  00000+0  14166-3 0  9998
2 40086  47.0022 113.3323 0002311 235.2139 124.8530 14.58750004622550
ORBCOMM FM107           
1 40087U 14040B   26087.77348662  .00000498  00000+0  14155-3 0  9993
2 40087  47.0037 112.4909 0000859 213.5099 146.5732 14.58835074622686
ORBCOMM FM106           
1 40088U 14040C   26087.56364830  .00000935  00000+0  18412-3 0  9992
2 40088  47.0594 272.4842 0016738 307.3414  52.5952 14.70347707625312
ORBCOMM FM111           
1 40089U 14040D   26087.76792610  .00002970  00000+0  33795-3 0  9998
2 40089  46.9999  81.9115 0027597 117.4905 242.8802 14.88446281632598
ORBCOMM FM104           
1 40090U 14040E   26087.18639997  .00000421  00000+0  12989-3 0  9995
2 40090  47.0040 152.3317 0015172  62.0362 298.2057 14.57192239622036
ORBCOMM FM103           
1 40091U 14040F   26087.76252036  .00000530  00000+0  14858-3 0  9993
2 40091  47.0041 113.2785 0001252 185.6557 174.4315 14.58739688605641
ORBCOMM FM114           
1 41179U 15081A   26087.84627710  .00000621  00000+0  16797-3 0  9996
2 41179  47.0064  21.8179 0002220 211.6629 148.4124 14.58759977546029
ORBCOMM FM119           
1 41180U 15081B   26087.84630972  .00000513  00000+0  14508-3 0  9990
2 41180  47.0000 291.1800 0001464 268.6411  91.4307 14.58701955547275
